[{"OBJECT_NAME":"STARLINK-2582","OBJECT_ID":"2021-040AJ","EPOCH":"2026-03-10T00:00:02.999808","MEAN_MOTION":15.55262081,"ECCENTRICITY":0.0004224,"INCLINATION":53.0578,"RA_OF_ASC_NODE":128.9245,"ARG_OF_PERICENTER":359.6111,"MEAN_ANOMALY":272.6873,"EPHEMERIS_TYPE":0,"CLASSIFICATION_TYPE":"U","NORAD_CAT_ID":48460,"ELEMENT_SET_NO":999,"REV_AT_EPOCH":576,"BSTAR":0.0026278943,"MEAN_MOTION_DOT":0.00184929,"MEAN_MOTION_DDOT":0},{"OBJECT_NAME":"TRANSPORTER-11 OBJECT BF","OBJECT_ID":"2024-149BF","EPOCH":"2026-03-09T16:59:51.479808","MEAN_MOTION":15.59997231,"ECCENTRICITY":0.00034224,"INCLINATION":97.3818,"RA_OF_ASC_NODE":159.1799,"ARG_OF_PERICENTER":238.2846,"MEAN_ANOMALY":121.8078,"EPHEMERIS_TYPE":0,"CLASSIFICATION_TYPE":"U","NORAD_CAT_ID":60521,"ELEMENT_SET_NO":999,"REV_AT_EPOCH":8747,"BSTAR":0.00094090454,"MEAN_MOTION_DOT":0.00076484,"MEAN_MOTION_DDOT":0}]
